{
  "links" : {
    "next" : "https://api.nasa.gov/neo/rest/v1/feed?start_date=2011-12-23&end_date=2011-12-23&detailed=true&api_key=t0TVs3DtDT2H8Oy2Zy8m2eVrNsAVKAexjcZXUckd",
    "prev" : "https://api.nasa.gov/neo/rest/v1/feed?start_date=2011-12-21&end_date=2011-12-21&detailed=true&api_key=t0TVs3DtDT2H8Oy2Zy8m2eVrNsAVKAexjcZXUckd",
    "self" : "https://api.nasa.gov/neo/rest/v1/feed?start_date=2011-12-22&end_date=2011-12-22&detailed=true&api_key=t0TVs3DtDT2H8Oy2Zy8m2eVrNsAVKAexjcZXUckd"
  },
  "element_count" : 5,
  "near_earth_objects" : {
    "2011-12-22" : [ {
      "links" : {
        "self" : "https://api.nasa.gov/neo/rest/v1/neo/3591688?api_key=t0TVs3DtDT2H8Oy2Zy8m2eVrNsAVKAexjcZXUckd"
      },
      "neo_reference_id" : "3591688",
      "name" : "(2011 YW15)",
      "nasa_jpl_url" : "http://ssd.jpl.nasa.gov/sbdb.cgi?sstr=3591688",
      "absolute_magnitude_h" : 24.7,
      "estimated_diameter" : {
        "kilometers" : {
          "estimated_diameter_min" : 0.0305179233,
          "estimated_diameter_max" : 0.0682401509
        },
        "meters" : {
          "estimated_diameter_min" : 30.5179232594,
          "estimated_diameter_max" : 68.2401509401
        },
        "miles" : {
          "estimated_diameter_min" : 0.0189629525,
          "estimated_diameter_max" : 0.0424024508
        },
        "feet" : {
          "estimated_diameter_min" : 100.1244233463,
          "estimated_diameter_max" : 223.8850168104
        }
      },
      "is_potentially_hazardous_asteroid" : false,
      "close_approach_data" : [ {
        "close_approach_date" : "2011-12-22",
        "epoch_date_close_approach" : 1324540800000,
        "relative_velocity" : {
          "kilometers_per_second" : "5.0929783034",
          "kilometers_per_hour" : "18334.7218920849",
          "miles_per_hour" : "11392.4831667791"
        },
        "miss_distance" : {
          "astronomical" : "0.013160819",
          "lunar" : "5.1195588112",
          "kilometers" : "1968830.5",
          "miles" : "1223374.625"
        },
        "orbiting_body" : "Earth"
      } ],
      "orbital_data" : {
        "orbit_id" : "13",
        "orbit_determination_date" : "2017-04-06 08:51:41",
        "orbit_uncertainty" : "6",
        "minimum_orbit_intersection" : ".0143576",
        "jupiter_tisserand_invariant" : "4.513",
        "epoch_osculation" : "2458000.5",
        "eccentricity" : ".3283977497511659",
        "semi_major_axis" : "1.482895686927974",
        "inclination" : "5.05497250964248",
        "ascending_node_longitude" : "91.63863825560178",
        "orbital_period" : "659.5752183299551",
        "perihelion_distance" : ".9959160802251182",
        "perihelion_argument" : "353.6714403248694",
        "aphelion_distance" : "1.969875293630831",
        "perihelion_time" : "2457892.606721455767",
        "mean_anomaly" : "58.88878053100738",
        "mean_motion" : ".5458058307762385",
        "equinox" : "J2000"
      }
    }, {
      "links" : {
        "self" : "https://api.nasa.gov/neo/rest/v1/neo/3660062?api_key=t0TVs3DtDT2H8Oy2Zy8m2eVrNsAVKAexjcZXUckd"
      },
      "neo_reference_id" : "3660062",
      "name" : "(2014 BU43)",
      "nasa_jpl_url" : "http://ssd.jpl.nasa.gov/sbdb.cgi?sstr=3660062",
      "absolute_magnitude_h" : 26.6,
      "estimated_diameter" : {
        "kilometers" : {
          "estimated_diameter_min" : 0.0127219879,
          "estimated_diameter_max" : 0.0284472297
        },
        "meters" : {
          "estimated_diameter_min" : 12.7219878539,
          "estimated_diameter_max" : 28.4472296503
        },
        "miles" : {
          "estimated_diameter_min" : 0.0079050743,
          "estimated_diameter_max" : 0.0176762835
        },
        "feet" : {
          "estimated_diameter_min" : 41.7388066307,
          "estimated_diameter_max" : 93.330808926
        }
      },
      "is_potentially_hazardous_asteroid" : false,
      "close_approach_data" : [ {
        "close_approach_date" : "2011-12-22",
        "epoch_date_close_approach" : 1324540800000,
        "relative_velocity" : {
          "kilometers_per_second" : "17.4498076418",
          "kilometers_per_hour" : "62819.3075103187",
          "miles_per_hour" : "39033.4747138422"
        },
        "miss_distance" : {
          "astronomical" : "0.2598981146",
          "lunar" : "101.1003723145",
          "kilometers" : "38880208",
          "miles" : "24159040"
        },
        "orbiting_body" : "Earth"
      } ],
      "orbital_data" : {
        "orbit_id" : "6",
        "orbit_determination_date" : "2017-04-06 08:42:40",
        "orbit_uncertainty" : "7",
        "minimum_orbit_intersection" : ".00943562",
        "jupiter_tisserand_invariant" : "7.701",
        "epoch_osculation" : "2458000.5",
        "eccentricity" : ".406212283076846",
        "semi_major_axis" : ".7416681063986221",
        "inclination" : "6.772550626667683",
        "ascending_node_longitude" : "312.7881835732516",
        "orbital_period" : "233.2989758742716",
        "perihelion_distance" : ".4403934116131567",
        "perihelion_argument" : "341.0833431167279",
        "aphelion_distance" : "1.042942801184088",
        "perihelion_time" : "2457949.146514039479",
        "mean_anomaly" : "79.2427608244215",
        "mean_motion" : "1.543084356246851",
        "equinox" : "J2000"
      }
    } ]
  }
}